0 DELTA 2 DEB
1 29363U 00075F   13279.86807004  .00007888  00000-0  47476-2 0  2051
2 29363 095.3966 317.6639 0539567 003.4850 253.5313 13.52259274439281
0 DELTA 2 DEB
1 29363U 00075F   13285.88217706  .00009481  00000-0  57263-2 0  2061
2 29363 095.3974 320.9660 0537715 346.6760 012.5807 13.52387023440104
0 DELTA 2 DEB
1 29363U 00075F   13291.35650104  .00010705  00000-0  64310-2 0  2076
2 29363 095.3939 323.9471 0538289 331.0964 027.1885 13.52529789440845
